[{"OBJECT_NAME":"STARLINK-36120","OBJECT_ID":"2025-293P","EPOCH":"2026-03-09T19:10:56.604000","MEAN_MOTION":14.98335584,"ECCENTRICITY":0.00034813,"INCLINATION":70.0009,"RA_OF_ASC_NODE":94.2038,"ARG_OF_PERICENTER":267.624,"MEAN_ANOMALY":92.4521,"EPHEMERIS_TYPE":0,"CLASSIFICATION_TYPE":"U","NORAD_CAT_ID":67016,"ELEMENT_SET_NO":999,"REV_AT_EPOCH":1490,"BSTAR":0.00033786536,"MEAN_MOTION_DOT":3.941e-5,"MEAN_MOTION_DDOT":0},{"OBJECT_NAME":"KUIPER-00179","OBJECT_ID":"2025-301D","EPOCH":"2026-03-09T22:00:01.999584","MEAN_MOTION":15.06426136,"ECCENTRICITY":0.00027009,"INCLINATION":51.8878,"RA_OF_ASC_NODE":65.7875,"ARG_OF_PERICENTER":79.7828,"MEAN_ANOMALY":141.5104,"EPHEMERIS_TYPE":0,"CLASSIFICATION_TYPE":"U","NORAD_CAT_ID":67136,"ELEMENT_SET_NO":999,"REV_AT_EPOCH":537,"BSTAR":-0.078767589,"MEAN_MOTION_DOT":-0.01086026,"MEAN_MOTION_DDOT":0}]
